ONEWEB-0153             
1 48044U 21025C   23336.47508748  .00004352  00000+0  11906-1 0  9991
2 48044  87.8975 144.8441 0002539 112.9403 247.1994 13.13298632131763
ONEWEB-0154             
1 48045U 21025D   23336.54813825  .00000225  00000+0  58214-3 0  9995
2 48045  87.8982 144.8438 0001440  97.1168 263.0125 13.13471890131739
ONEWEB-0116             
1 48046U 21025E   23336.51326091 -.00004482  00000+0 -12285-1 0  9994
2 48046  87.8959 144.8148 0000864   3.2011 356.9123 13.13637538131874
ONEWEB-0150             
1 48047U 21025F   23336.48779468  .00003675  00000+0  10049-1 0  9998
2 48047  87.8979 144.8483 0002425 109.4511 250.6880 13.13296541131761
ONEWEB-0107             
1 48048U 21025G   23336.48938914  .00003346  00000+0  91344-2 0  9995
2 48048  87.8984 144.8466 0002590 106.5558 253.5856 13.13399539131745
ONEWEB-0101             
1 48049U 21025H   23336.52909514  .00000223  00000+0  57446-3 0  9992
2 48049  87.8976 144.8465 0001500 100.6104 259.5194 13.13469089131725
ONEWEB-0113             
1 48050U 21025J   23336.50682746  .00003513  00000+0  96042-2 0  9996
2 48050  87.8923 144.8336 0002391 107.4428 252.6962 13.13296973131805
ONEWEB-0112             
1 48051U 21025K   23336.49414731  .00002004  00000+0  54676-2 0  9993
2 48051  87.8978 144.8400 0001743  94.9834 265.1494 13.13283895131818
